{
  "type": "FeatureCollection",
  "features": [
    {
      "type": "Feature",
      "properties": {
        "norad_id": 37095,
        "name": "COSMOS 2251 DEB",
        "group": "cosmos-2251-debris",
        "lat": 47.972776193610386,
        "lon": -158.66320399432323,
        "alt_km": 1016.9938683190148,
        "timestamp": "2025-12-16T21:38:57.572820+00:00",
        "meta_object_name": "COSMOS 2251 DEB",
        "meta_object_id": "1993-036BFR",
        "meta_epoch": "2025-12-14T06:06:08.543520",
        "meta_mean_motion": 14.03409585,
        "meta_eccentricity": 0.019488,
        "meta_inclination": 73.8479,
        "meta_ra_of_asc_node": 187.2421,
        "meta_arg_of_pericenter": 244.7942,
        "meta_mean_anomaly": 113.2877,
        "meta_ephemeris_type": 0,
        "meta_classification_type": "U",
        "meta_norad_cat_id": 37095,
        "meta_element_set_no": 999,
        "meta_rev_at_epoch": 62657,
        "meta_bstar": 0.0017117328,
        "meta_mean_motion_dot": 3.142e-05,
        "meta_mean_motion_ddot": 0,
        "tle_line1": "1 37095U 93036BFR 25348.25426555  .00003142  00000+0  17117-2 0  9999",
        "tle_line2": "2 37095  73.8479 187.2421 0194880 244.7942 113.2877 14.03409585626575"
      },
      "geometry": {
        "type": "Point",
        "coordinates": [
          -158.66320399432323,
          47.972776193610386
        ]
      }
    },
    {
      "type": "Feature",
      "properties": {
        "norad_id": 37108,
        "name": "COSMOS 2251 DEB",
        "group": "cosmos-2251-debris",
        "lat": -55.474926021712314,
        "lon": 48.28437115906664,
        "alt_km": 818.2917604087797,
        "timestamp": "2025-12-16T21:38:57.572830+00:00",
        "meta_object_name": "COSMOS 2251 DEB",
        "meta_object_id": "1993-036BGE",
        "meta_epoch": "2025-12-16T05:16:08.883264",
        "meta_mean_motion": 14.41331448,
        "meta_eccentricity": 0.00910191,
        "meta_inclination": 74.0448,
        "meta_ra_of_asc_node": 74.1211,
        "meta_arg_of_pericenter": 149.9328,
        "meta_mean_anomaly": 210.7099,
        "meta_ephemeris_type": 0,
        "meta_classification_type": "U",
        "meta_norad_cat_id": 37108,
        "meta_element_set_no": 999,
        "meta_rev_at_epoch": 85557,
        "meta_bstar": 0.00083536398,
        "meta_mean_motion_dot": 2.814e-05,
        "meta_mean_motion_ddot": 0,
        "tle_line1": "1 37108U 93036BGE 25350.21954726  .00002814  00000+0  83536-3 0  9993",
        "tle_line2": "2 37108  74.0448  74.1211 0091019 149.9328 210.7099 14.41331448855571"
      },
      "geometry": {
        "type": "Point",
        "coordinates": [
          48.28437115906664,
          -55.474926021712314
        ]
      }
    },
    {
      "type": "Feature",
      "properties": {
        "norad_id": 37126,
        "name": "COSMOS 2251 DEB",
        "group": "cosmos-2251-debris",
        "lat": -41.72291805734287,
        "lon": -28.49258289604128,
        "alt_km": 660.3779909593595,
        "timestamp": "2025-12-16T21:38:57.572840+00:00",
        "meta_object_name": "COSMOS 2251 DEB",
        "meta_object_id": "1993-036BGY",
        "meta_epoch": "2025-12-15T06:43:54.416352",
        "meta_mean_motion": 14.73082746,
        "meta_eccentricity": 0.01230943,
        "meta_inclination": 73.9533,
        "meta_ra_of_asc_node": 349.5533,
        "meta_arg_of_pericenter": 227.1861,
        "meta_mean_anomaly": 131.8915,
        "meta_ephemeris_type": 0,
        "meta_classification_type": "U",
        "meta_norad_cat_id": 37126,
        "meta_element_set_no": 999,
        "meta_rev_at_epoch": 8136,
        "meta_bstar": 0.00020663432,
        "meta_mean_motion_dot": 1.461e-05,
        "meta_mean_motion_ddot": 0,
        "tle_line1": "1 37126U 93036BGY 25349.28049093  .00001461  00000+0  20663-3 0  9999",
        "tle_line2": "2 37126  73.9533 349.5533 0123094 227.1861 131.8915 14.73082746 81367"
      },
      "geometry": {
        "type": "Point",
        "coordinates": [
          -28.49258289604128,
          -41.72291805734287
        ]
      }
    },
    {
      "type": "Feature",
      "properties": {
        "norad_id": 37132,
        "name": "COSMOS 2251 DEB",
        "group": "cosmos-2251-debris",
        "lat": 71.28500298785042,
        "lon": -76.27767435027842,
        "alt_km": 614.4281379582962,
        "timestamp": "2025-12-16T21:38:57.572851+00:00",
        "meta_object_name": "COSMOS 2251 DEB",
        "meta_object_id": "1993-036BHE",
        "meta_epoch": "2025-12-15T09:32:55.769280",
        "meta_mean_motion": 14.77873409,
        "meta_eccentricity": 0.00399597,
        "meta_inclination": 74.0031,
        "meta_ra_of_asc_node": 228.8126,
        "meta_arg_of_pericenter": 24.0962,
        "meta_mean_anomaly": 336.207,
        "meta_ephemeris_type": 0,
        "meta_classification_type": "U",
        "meta_norad_cat_id": 37132,
        "meta_element_set_no": 999,
        "meta_rev_at_epoch": 62455,
        "meta_bstar": 0.00059917342,
        "meta_mean_motion_dot": 4.336e-05,
        "meta_mean_motion_ddot": 0,
        "tle_line1": "1 37132U 93036BHE 25349.39786770  .00004336  00000+0  59917-3 0  9996",
        "tle_line2": "2 37132  74.0031 228.8126 0039959  24.0962 336.2070 14.77873409624553"
      },
      "geometry": {
        "type": "Point",
        "coordinates": [
          -76.27767435027842,
          71.28500298785042
        ]
      }
    },
    {
      "type": "Feature",
      "properties": {
        "norad_id": 37270,
        "name": "COSMOS 2251 DEB",
        "group": "cosmos-2251-debris",
        "lat": -73.00575764618637,
        "lon": -140.3988129900218,
        "alt_km": 959.7011753570787,
        "timestamp": "2025-12-16T21:38:57.572861+00:00",
        "meta_object_name": "COSMOS 2251 DEB",
        "meta_object_id": "1993-036BHJ",
        "meta_epoch": "2025-12-12T22:45:06.098400",
        "meta_mean_motion": 13.59808663,
        "meta_eccentricity": 0.03985351,
        "meta_inclination": 73.9378,
        "meta_ra_of_asc_node": 335.5481,
        "meta_arg_of_pericenter": 347.3958,
        "meta_mean_anomaly": 11.7404,
        "meta_ephemeris_type": 0,
        "meta_classification_type": "U",
        "meta_norad_cat_id": 37270,
        "meta_element_set_no": 999,
        "meta_rev_at_epoch": 77072,
        "meta_bstar": 0.0064936549,
        "meta_mean_motion_dot": 8.148e-05,
        "meta_mean_motion_ddot": 0,
        "tle_line1": "1 37270U 93036BHJ 25346.94798725  .00008148  00000+0  64937-2 0  9992",
        "tle_line2": "2 37270  73.9378 335.5481 0398535 347.3958  11.7404 13.59808663770728"
      },
      "geometry": {
        "type": "Point",
        "coordinates": [
          -140.3988129900218,
          -73.00575764618637
        ]
      }
    },
    {
      "type": "Feature",
      "properties": {
        "norad_id": 37278,
        "name": "COSMOS 2251 DEB",
        "group": "cosmos-2251-debris",
        "lat": 37.222919455273626,
        "lon": -5.431936393512683,
        "alt_km": 956.3876959225763,
        "timestamp": "2025-12-16T21:38:57.572872+00:00",
        "meta_object_name": "COSMOS 2251 DEB",
        "meta_object_id": "1993-036BHS",
        "meta_epoch": "2025-12-04T09:26:36.152736",
        "meta_mean_motion": 14.15029915,
        "meta_eccentricity": 0.029998,
        "meta_inclination": 73.7864,
        "meta_ra_of_asc_node": 4.3592,
        "meta_arg_of_pericenter": 188.2556,
        "meta_mean_anomaly": 234.4903,
        "meta_ephemeris_type": 0,
        "meta_classification_type": "U",
        "meta_norad_cat_id": 37278,
        "meta_element_set_no": 999,
        "meta_rev_at_epoch": 63711,
        "meta_bstar": 0.0023061,
        "meta_mean_motion_dot": 6.884e-05,
        "meta_mean_motion_ddot": 0,
        "tle_line1": "1 37278U 93036BHS 25338.39347399  .00006884  00000+0  23061-2 0  9995",
        "tle_line2": "2 37278  73.7864   4.3592 0299980 188.2556 234.4903 14.15029915637119"
      },
      "geometry": {
        "type": "Point",
        "coordinates": [
          -5.431936393512683,
          37.222919455273626
        ]
      }
    },
    {
      "type": "Feature",
      "properties": {
        "norad_id": 37280,
        "name": "COSMOS 2251 DEB",
        "group": "cosmos-2251-debris",
        "lat": 47.99994840028454,
        "lon": 68.17055168319388,
        "alt_km": 878.431271248056,
        "timestamp": "2025-12-16T21:38:57.572882+00:00",
        "meta_object_name": "COSMOS 2251 DEB",
        "meta_object_id": "1993-036BHU",
        "meta_epoch": "2025-12-14T22:02:27.434112",
        "meta_mean_motion": 14.19330541,
        "meta_eccentricity": 0.01308275,
        "meta_inclination": 74.0321,
        "meta_ra_of_asc_node": 53.1735,
        "meta_arg_of_pericenter": 181.3662,
        "meta_mean_anomaly": 178.7145,
        "meta_ephemeris_type": 0,
        "meta_classification_type": "U",
        "meta_norad_cat_id": 37280,
        "meta_element_set_no": 999,
        "meta_rev_at_epoch": 57354,
        "meta_bstar": 0.00096264954,
        "meta_mean_motion_dot": 2.177e-05,
        "meta_mean_motion_ddot": 0,
        "tle_line1": "1 37280U 93036BHU 25348.91837308  .00002177  00000+0  96265-3 0  9999",
        "tle_line2": "2 37280  74.0321  53.1735 0130827 181.3662 178.7145 14.19330541573549"
      },
      "geometry": {
        "type": "Point",
        "coordinates": [
          68.17055168319388,
          47.99994840028454
        ]
      }
    }
  ]
}